LYNK TOWER 4            
1 55034U 23001AB  26068.67743801  .00009160  00000+0  30014-3 0  9997
2 55034  97.3324 128.5940 0010321 112.3386 247.8950 15.31819885176588
STARLINK-34118          
1 63900U 25095L   26067.36970235  .00029288  00000+0  10712-2 0  9996
2 63900  43.0010 183.8764 0001297 293.2376  66.8339 15.27531579 47580
